NORAD_CAT_ID,OBJECT_NAME,OBJECT_TYPE,EPOCH,MEAN_MOTION,ECCENTRICITY,INCLINATION,RA_OF_ASC_NODE,ARG_OF_PERICENTER,MEAN_ANOMALY,BSTAR,MEAN_MOTION_DOT,MEAN_MOTION_DDOT,TLE_LINE0,TLE_LINE1,TLE_LINE2,SEMIMAJOR_AXIS,PERIOD,APOGEE,PERIGEE,DECAYED
51117.0,STARLINK-3391,PAYLOAD,2023-06-11 20:21:37,15.08837906,0.0001306,53.2167,106.5297,84.6335,275.4806,7.4158e-05,8.92e-06,0.0,0 STARLINK-3391,1 51117U 22005P   23162.84835599  .00000892  00000-0  74158-4 0  9997,2 51117  53.2167 106.5297 0001306  84.6335 275.4806 15.08837906 77632,6917.887,95.438,540.655,538.848,0.0
51117.0,STARLINK-3391,PAYLOAD,2023-06-11 21:57:01,15.08839036,0.0001315,53.2169,106.2326,84.0929,276.0213,8.223e-05,1.021e-05,0.0,0 STARLINK-3391,1 51117U 22005P   23162.91459518  .00001021  00000-0  82230-4 0  9993,2 51117  53.2169 106.2326 0001315  84.0929 276.0213 15.08839036 78756,6917.883,95.438,540.658,538.839,0.0
51117.0,STARLINK-3391,PAYLOAD,2023-06-12 02:43:10,15.08845775,0.0001318,53.217,105.3405,84.2569,275.8573,8.7168e-05,1.1e-05,0.0,0 STARLINK-3391,1 51117U 22005P   23163.11331088  .00001100  00000-0  87168-4 0  9990,2 51117  53.2170 105.3405 0001318  84.2569 275.8573 15.08845775 77674,6917.863,95.437,540.64,538.816,0.0
51117.0,STARLINK-3391,PAYLOAD,2023-06-13 02:33:58,15.08829388,0.0001269,53.2173,100.8797,90.9303,269.1835,9.0625e-05,1.154e-05,0.0,0 STARLINK-3391,1 51117U 22005P   23164.10692218  .00001154  00000-0  90625-4 0  9996,2 51117  53.2173 100.8797 0001269  90.9303 269.1835 15.08829388 78935,6917.913,95.438,540.656,538.9,0.0
51117.0,STARLINK-3391,PAYLOAD,2023-06-13 20:03:12,15.08839945,0.0001211,53.2171,97.6075,99.5626,260.5503,-3.9087e-06,-3.5e-06,0.0,0 STARLINK-3391,1 51117U 22005P   23164.83555825 -.00000350  00000-0 -39087-5 0  9993,2 51117  53.2171  97.6075 0001211  99.5626 260.5503 15.08839945 77931,6917.881,95.438,540.583,538.908,0.0
51117.0,STARLINK-3391,PAYLOAD,2023-06-14 19:53:59,15.08827637,0.0001554,53.2191,93.1516,115.3982,244.7171,8.5903e-05,1.079e-05,0.0,0 STARLINK-3391,1 51117U 22005P   23165.82916318  .00001079  00000-0  85903-4 0  9995,2 51117  53.2191  93.1516 0001554 115.3982 244.7171 15.08827637 78083,6917.918,95.438,540.858,538.708,0.0
51117.0,STARLINK-3391,PAYLOAD,2023-06-15 02:15:32,15.08831054,0.0001333,53.2186,91.9634,107.3909,252.7229,-1.3506e-05,-5.03e-06,0.0,0 STARLINK-3391,1 51117U 22005P   23166.09412724 -.00000503  00000-0 -13506-4 0  9990,2 51117  53.2186  91.9634 0001333 107.3909 252.7229 15.08831054 79238,6917.908,95.438,540.695,538.851,0.0
51117.0,STARLINK-3391,PAYLOAD,2023-06-15 05:26:18,15.08832831,0.0001271,53.2182,91.3667,101.8574,258.2561,-4.1639e-07,-2.94e-06,0.0,0 STARLINK-3391,1 51117U 22005P   23166.22660616 -.00000294  00000-0 -41639-6 0  9997,2 51117  53.2182  91.3667 0001271 101.8574 258.2561 15.08832831 78145,6917.902,95.438,540.647,538.888,0.0
51117.0,STARLINK-3391,PAYLOAD,2023-06-16 00:30:55,15.08843225,0.0001226,53.2173,87.7978,106.808,253.3047,4.6302e-05,4.49e-06,0.0,0 STARLINK-3391,1 51117U 22005P   23167.02148003  .00000449  00000-0  46302-4 0  9997,2 51117  53.2173  87.7978 0001226 106.8080 253.3047 15.08843225 79376,6917.871,95.437,540.584,538.887,0.0
51117.0,STARLINK-3391,PAYLOAD,2023-06-16 03:41:41,15.08850083,0.0001321,53.218,87.2032,111.9846,248.1287,0.00010527,1.388e-05,0.0,0 STARLINK-3391,1 51117U 22005P   23167.15395380  .00001388  00000-0  10527-3 0  9995,2 51117  53.2180  87.2032 0001321 111.9846 248.1287 15.08850083 79393,6917.85,95.437,540.628,538.801,0.0
51117.0,STARLINK-3391,PAYLOAD,2023-06-16 22:46:19,15.08842099,0.0001148,53.2182,83.6345,103.4516,256.6604,0.00012354,1.679e-05,0.0,0 STARLINK-3391,1 51117U 22005P   23167.94883645  .00001679  00000-0  12354-3 0  9991,2 51117  53.2182  83.6345 0001148 103.4516 256.6604 15.08842099 79518,6917.874,95.437,540.533,538.945,0.0
51117.0,STARLINK-3391,PAYLOAD,2023-06-17 11:29:25,15.08832091,0.000103,53.2182,81.2567,100.4157,259.6951,1.2731e-05,-8.5e-07,0.0,0 STARLINK-3391,1 51117U 22005P   23168.47876529 -.00000085  00000-0  12731-4 0  9994,2 51117  53.2182  81.2567 0001030 100.4157 259.6951 15.08832091 78480,6917.905,95.438,540.482,539.057,0.0
51117.0,STARLINK-3391,PAYLOAD,2023-06-17 17:50:58,15.08831767,0.0001418,53.2168,80.069,83.2758,276.8395,-9.1294e-06,-4.33e-06,0.0,0 STARLINK-3391,1 51117U 22005P   23168.74372951 -.00000433  00000-0 -91294-5 0  9994,2 51117  53.2168  80.0690 0001418  83.2758 276.8395 15.08831767 79633,6917.906,95.438,540.752,538.79,0.0
51117.0,STARLINK-3391,PAYLOAD,2023-06-18 03:23:17,15.08828533,0.0001261,53.2171,78.2838,80.5474,279.566,-0.00011644,-2.14e-05,0.0,0 STARLINK-3391,1 51117U 22005P   23169.14117718 -.00002140  00000-0 -11644-3 0  9993,2 51117  53.2171  78.2838 0001261  80.5474 279.5660 15.08828533 79699,6917.915,95.438,540.653,538.908,0.0
51117.0,STARLINK-3391,PAYLOAD,2023-06-18 11:20:12,15.08840526,0.0001224,53.2184,76.7942,100.9891,259.1239,-6.9176e-05,-1.389e-05,0.0,0 STARLINK-3391,1 51117U 22005P   23169.47236753 -.00001389  00000-0 -69176-4 0  9998,2 51117  53.2184  76.7942 0001224 100.9891 259.1239 15.08840526 78636,6917.879,95.438,540.591,538.897,0.0
51117.0,STARLINK-3391,PAYLOAD,2023-06-19 03:14:02,15.08855849,0.0001112,53.2177,73.8201,80.767,279.3448,6.5113e-05,7.49e-06,0.0,0 STARLINK-3391,1 51117U 22005P   23170.13475354  .00000749  00000-0  65113-4 0  9999,2 51117  53.2177  73.8201 0001112  80.7670 279.3448 15.08855849 79844,6917.832,95.437,540.466,538.928,0.0
51117.0,STARLINK-3391,PAYLOAD,2023-06-20 03:04:50,15.08839729,0.0001132,53.2185,69.3594,101.0245,259.0875,0.0001642,2.326e-05,0.0,0 STARLINK-3391,1 51117U 22005P   23171.12836473  .00002326  00000-0  16420-3 0  9991,2 51117  53.2185  69.3594 0001132 101.0245 259.0875 15.08839729 79999,6917.881,95.438,540.529,538.963,0.0
51117.0,STARLINK-3391,PAYLOAD,2023-06-20 20:34:05,15.08845417,0.0001324,53.2187,66.0881,104.8183,255.2955,3.7716e-05,3.12e-06,0.0,0 STARLINK-3391,1 51117U 22005P   23171.85700484  .00000312  00000-0  37716-4 0  9998,2 51117  53.2187  66.0881 0001324 104.8183 255.2955 15.08845417 78996,6917.864,95.437,540.645,538.813,0.0
51117.0,STARLINK-3391,PAYLOAD,2023-06-21 02:55:37,15.08852146,0.0001126,53.2183,64.8996,93.41,266.7021,5.1235e-05,5.28e-06,0.0,0 STARLINK-3391,1 51117U 22005P   23172.12195970  .00000528  00000-0  51235-4 0  9998,2 51117  53.2183  64.8996 0001126  93.4100 266.7021 15.08852146 79031,6917.843,95.437,540.487,538.929,0.0
51117.0,STARLINK-3391,PAYLOAD,2023-06-21 20:24:52,15.08837481,0.0001073,53.218,61.6305,83.2786,276.8328,1.6518e-05,-2.5e-07,0.0,0 STARLINK-3391,1 51117U 22005P   23172.85061177 -.00000025  00000-0  16518-4 0  9997,2 51117  53.2180  61.6305 0001073  83.2786 276.8328 15.08837481 79144,6917.888,95.438,540.495,539.011,0.0
51117.0,STARLINK-3391,PAYLOAD,2023-06-22 01:11:01,15.08844916,0.0001044,53.2181,60.7378,87.6657,272.4455,6.7732e-05,7.9e-06,0.0,0 STARLINK-3391,1 51117U 22005P   23173.04932537  .00000790  00000-0  67732-4 0  9998,2 51117  53.2181  60.7378 0001044  87.6657 272.4455 15.08844916 80289,6917.865,95.437,540.453,539.008,0.0
51117.0,STARLINK-3391,PAYLOAD,2023-06-22 15:29:30,15.0883889,0.0001138,53.2176,58.0634,90.2041,269.9081,7.2002e-05,8.58e-06,0.0,0 STARLINK-3391,1 51117U 22005P   23173.64548897  .00000858  00000-0  72002-4 0  9997,2 51117  53.2176  58.0634 0001138  90.2041 269.9081 15.08838890 80379,6917.884,95.438,540.536,538.962,0.0
51117.0,STARLINK-3391,PAYLOAD,2023-06-24 00:52:35,15.08846753,0.0001023,53.2173,51.8185,89.9302,270.1808,0.00013724,1.897e-05,0.0,0 STARLINK-3391,1 51117U 22005P   23175.03652760  .00001897  00000-0  13724-3 0  9996,2 51117  53.2173  51.8185 0001023  89.9302 270.1808 15.08846753 80587,6917.86,95.437,540.432,539.017,0.0
51117.0,STARLINK-3391,PAYLOAD,2023-06-24 08:49:32,15.08838415,0.0001054,53.2172,50.328,85.0901,275.0211,3.1678e-05,2.16e-06,0.0,0 STARLINK-3391,1 51117U 22005P   23175.36773210  .00000216  00000-0  31678-4 0  9999,2 51117  53.2172  50.3280 0001054  85.0901 275.0211 15.08838415 80636,6917.885,95.438,540.479,539.021,0.0
51117.0,STARLINK-3391,PAYLOAD,2023-06-25 15:01:51,15.08840731,0.0001208,53.2173,44.6815,79.4492,280.6636,9.0547e-06,-1.44e-06,0.0,0 STARLINK-3391,1 51117U 22005P   23176.62629403 -.00000144  00000-0  90547-5 0  9995,2 51117  53.2173  44.6815 0001208  79.4492 280.6636 15.08840731 80828,6917.878,95.438,540.579,538.907,0.0
51117.0,STARLINK-3391,PAYLOAD,2023-06-26 21:14:11,15.08845197,0.0001051,53.2179,39.0299,95.4994,264.6118,1.3261e-05,-7.7e-07,0.0,0 STARLINK-3391,1 51117U 22005P   23177.88485291 -.00000077  00000-0  13261-4 0  9991,2 51117  53.2179  39.0299 0001051  95.4994 264.6118 15.08845197 81019,6917.865,95.437,540.457,539.002,0.0
51117.0,STARLINK-3391,PAYLOAD,2023-06-27 21:04:58,15.08826714,9.84e-05,53.2171,34.5686,93.7811,266.3293,0.00031118,4.666e-05,0.0,0 STARLINK-3391,1 51117U 22005P   23178.87845894  .00004666  00000-0  31118-3 0  9997,2 51117  53.2171  34.5686 0000984  93.7811 266.3293 15.08826714 81167,6917.921,95.438,540.467,539.105,0.0
51117.0,STARLINK-3391,PAYLOAD,2023-06-28 00:15:44,15.08852589,0.0001045,53.2171,33.9742,87.6231,272.488,-9.7543e-06,-4.43e-06,0.0,0 STARLINK-3391,1 51117U 22005P   23179.01092740 -.00000443  00000-0 -97543-5 0  9995,2 51117  53.2171  33.9742 0001045  87.6231 272.4880 15.08852589 81181,6917.842,95.437,540.43,538.984,0.0
51117.0,STARLINK-3391,PAYLOAD,2023-06-28 17:44:59,15.08829253,0.0001051,53.2187,30.7017,97.8967,262.2145,5.7657e-05,6.3e-06,0.0,0 STARLINK-3391,1 51117U 22005P   23179.73958203  .00000630  00000-0  57657-4 0  9996,2 51117  53.2187  30.7017 0001051  97.8967 262.2145 15.08829253 81299,6917.913,95.438,540.505,539.051,0.0
51117.0,STARLINK-3391,PAYLOAD,2023-06-28 20:55:45,15.08836716,0.0001137,53.218,30.1086,92.2839,267.8284,8.5331e-06,-1.52e-06,0.0,0 STARLINK-3391,1 51117U 22005P   23179.87205923 -.00000152  00000-0  85331-5 0  9996,2 51117  53.2180  30.1086 0001137  92.2839 267.8284 15.08836716 81314,6917.89,95.438,540.542,538.969,0.0
